GLOBALSTAR M062         
1 26082U 00008B   24366.85776906 -.00000144  00000+0 -32465-3 0  9998
2 26082  51.9829 227.8454 0007896 109.4378 359.8897 12.43456511475803
GLOBALSTAR M060         
1 26083U 00008C   24366.78766145 -.00000021  00000+0  69240-3 0  9999
2 26083  51.9990 164.3749 0004329 131.7328   5.7464 12.17652567131970
GLOBALSTAR M064         
1 26084U 00008D   24366.86923228 -.00000013  00000+0  10009-2 0  9995
2 26084  52.0045 293.0279 0002078  80.4512 279.6556 11.88528357147209
GLOBALSTAR M069         
1 31573U 07020C   24366.70974309 -.00000061  00000+0  25215-3 0  9993
2 31573  51.9971 336.2171 0000430  85.8544  85.5436 12.53308121813310
GLOBALSTAR M072         
1 31574U 07020D   24366.72350954 -.00000103  00000+0 -23637-3 0  9994
2 31574  52.0084  77.8554 0001049  85.5639  92.8466 11.95103701811493
GLOBALSTAR M071         
1 31576U 07020F   24366.69483810 -.00000067  00000+0  23383-3 0  9996
2 31576  52.0084 340.6949 0001935  64.9020 106.3769 12.31891391474518
